OBJECT_NAME,OBJECT_ID,EPOCH,MEAN_MOTION,ECCENTRICITY,INCLINATION,RA_OF_ASC_NODE,ARG_OF_PERICENTER,MEAN_ANOMALY,EPHEMERIS_TYPE,CLASSIFICATION_TYPE,NORAD_CAT_ID,ELEMENT_SET_NO,REV_AT_EPOCH,BSTAR,MEAN_MOTION_DOT,MEAN_MOTION_DDOT
ONEWEB-0522,2022-138AD,2026-06-22T18:04:13.081152,13.19724613,.00017745,87.9188,303.8487,101.2346,258.8987,0,U,54140,999,17754,.4462284E-4,.31E-6,0
ONEWEB-0523,2022-138AE,2026-06-22T13:25:46.711488,13.20771840,.00027318,87.9202,273.3700,94.1007,266.0438,0,U,54141,999,18001,.20302899E-3,.96E-6,0
ONEWEB-0524,2022-138AF,2026-06-22T07:43:59.093472,13.20731570,.00030612,87.9195,273.4141,134.6099,225.5284,0,U,54142,999,17998,.20263572E-1,.8255E-4,0
ONEWEB-0525,2022-138AG,2026-06-22T14:53:08.558880,13.19726533,.00016771,87.9180,303.8823,110.1467,249.9846,0,U,54143,999,17754,.37476049E-3,.163E-5,0
ONEWEB-0526,2022-138AH,2026-06-22T08:24:12.080448,13.19726246,.00018725,87.9185,303.9367,104.4541,255.6800,0,U,54144,999,17748,.7360491E-5,.16E-6,0
ONEWEB-0529,2022-138AJ,2026-06-22T15:45:27.927936,13.19725549,.00017244,87.9173,303.8843,105.2339,254.8984,0,U,54145,999,17754,.5395536E-5,.15E-6,0
ONEWEB-0531,2022-138AK,2026-06-22T07:24:34.946784,13.20772204,.0002861,87.9196,273.4145,99.4700,260.6757,0,U,54146,999,17998,.24605813E-3,.113E-5,0
ONEWEB-0535,2022-138AL,2026-06-22T14:44:02.765760,13.19726003,.00021597,87.9184,303.8777,93.9454,266.1926,0,U,54147,999,17755,.2420319E-3,.11E-5,0
ONEWEB-0536,2022-138AM,2026-06-22T12:32:26.865024,13.20772319,.00030353,87.9182,273.3937,102.0063,258.1411,0,U,54148,999,18000,.18862102E-3,.9E-6,0
ONEWEB-0527,2022-166A,2026-06-22T11:24:33.151680,13.21823738,.00019883,87.9249,242.9451,100.0988,260.0371,0,U,54642,999,17223,-.24784256E-4,.3E-7,0
ONEWEB-0528,2022-166B,2026-06-22T11:25:45.505632,13.21824934,.0001884,87.9249,242.9474,104.7216,255.4127,0,U,54643,999,17224,-.16132901E-3,-.54E-6,0
ONEWEB-0539,2022-166C,2026-06-22T15:58:16.331520,13.21827996,.00018745,87.9254,242.8818,92.4601,267.6748,0,U,54644,999,17226,-.82198554E-4,-.21E-6,0
ONEWEB-0540,2022-166D,2026-06-22T10:41:08.755008,13.21827519,.00020305,87.9254,242.9556,95.0231,265.1135,0,U,54645,999,17222,.10295751E-3,.56E-6,0
ONEWEB-0542,2022-166E,2026-06-22T10:45:47.673216,13.21824809,.00019264,87.9259,242.9237,90.5407,269.5948,0,U,54646,999,17223,.16002908E-4,.2E-6,0
ONEWEB-0545,2022-166F,2026-06-22T11:43:56.392896,13.21827669,.00019508,87.9252,242.9270,82.2310,277.9046,0,U,54647,999,17220,-.41396956E-3,-.158E-5,0
ONEWEB-0580,2022-166G,2026-06-22T05:40:33.861792,13.21828239,.00021487,87.9251,242.9770,87.4812,272.6568,0,U,54648,999,17221,-.19914407E-3,-.69E-6,0
ONEWEB-0582,2022-166H,2026-06-22T10:19:09.319872,13.21827501,.00020616,87.9250,242.9311,85.7710,274.3659,0,U,54649,999,17221,.10956972E-3,.58E-6,0
ONEWEB-0583,2022-166J,2026-06-22T16:03:06.947424,13.21824513,.00020057,87.9248,242.9069,94.9033,265.2330,0,U,54650,999,17225,-.21211502E-4,.4E-7,0
ONEWEB-0584,2022-166K,2026-06-22T05:38:10.131936,13.21825396,.00021007,87.9248,242.9786,95.0351,265.1023,0,U,54651,999,17218,.27915335E-4,.25E-6,0
ONEWEB-0585,2022-166L,2026-06-22T11:39:05.665536,13.21826899,.0002071,87.9252,242.9160,102.8549,257.2817,0,U,54652,999,17222,.65862782E-4,.4E-6,0
ONEWEB-0586,2022-166M,2026-06-22T10:09:27.823680,13.21824642,.00019558,87.9248,242.9538,93.7539,266.3819,0,U,54653,999,17221,.26818558E-4,.24E-6,0
ONEWEB-0587,2022-166N,2026-06-22T10:23:59.934048,13.21823976,.00021012,87.9260,242.9260,107.9895,252.1468,0,U,54654,999,17237,-.64952666E-4,-.14E-6,0
ONEWEB-0589,2022-166P,2026-06-22T10:04:37.235424,13.21824752,.00022141,87.9246,242.9401,75.3756,284.7623,0,U,54655,999,17223,-.19080116E-3,-.66E-6,0
ONEWEB-0590,2022-166Q,2026-06-22T10:40:45.062400,13.21827701,.00025149,87.9263,242.9261,96.9483,263.1937,0,U,54656,999,17222,.54164008E-4,.35E-6,0
ONEWEB-0591,2022-166R,2026-06-22T05:30:54.789120,13.21826692,.00021023,87.9249,242.9828,97.6404,262.4968,0,U,54657,999,17222,.20796611E-3,.99E-6,0
ONEWEB-0592,2022-166S,2026-06-22T05:35:43.838592,13.21827883,.00020547,87.9259,242.9608,98.3664,261.7703,0,U,54658,999,17210,.84609432E-4,.48E-6,0
ONEWEB-0593,2022-166T,2026-06-22T11:34:14.161440,13.21825455,.00019001,87.9252,242.9224,95.6395,264.4955,0,U,54659,999,17224,-.8785811E-5,.9E-7,0
ONEWEB-0594,2022-166U,2026-06-22T10:14:18.321216,13.21828308,.00019141,87.9249,242.9499,103.0974,257.0374,0,U,54660,999,17225,-.16785175E-3,-.56E-6,0
ONEWEB-0595,2022-166V,2026-06-22T11:29:23.434080,13.21824329,.000214,87.9258,242.9204,104.6713,255.4658,0,U,54661,999,17223,-.821202E-4,-.21E-6,0
ONEWEB-0596,2022-166W,2026-06-22T10:53:03.997536,13.21827501,.00021187,87.9252,242.9366,100.8875,259.2498,0,U,54662,999,17223,.1203577E-3,.63E-6,0
