ONEWEB-0522             
1 54140U 22138AD  26173.75292918  .00000031  00000+0  44623-4 0  9998
2 54140  87.9188 303.8487 0001774 101.2346 258.8987 13.19724613177544
ONEWEB-0523             
1 54141U 22138AE  26173.55956842  .00000096  00000+0  20303-3 0  9999
2 54141  87.9202 273.3700 0002731  94.1007 266.0438 13.20771840180013
ONEWEB-0524             
1 54142U 22138AF  26173.32221173  .00008255  00000+0  20264-1 0  9996
2 54142  87.9195 273.4141 0003061 134.6099 225.5284 13.20731570179982
ONEWEB-0525             
1 54143U 22138AG  26173.62023795  .00000163  00000+0  37476-3 0  9995
2 54143  87.9180 303.8823 0001677 110.1467 249.9846 13.19726533177546
ONEWEB-0526             
1 54144U 22138AH  26173.35013982  .00000016  00000+0  73605-5 0  9996
2 54144  87.9185 303.9367 0001872 104.4541 255.6800 13.19726246177480
ONEWEB-0529             
1 54145U 22138AJ  26173.65657324  .00000015  00000+0  53955-5 0  9999
2 54145  87.9173 303.8843 0001724 105.2339 254.8984 13.19725549177542
ONEWEB-0531             
1 54146U 22138AK  26173.30873781  .00000113  00000+0  24606-3 0  9997
2 54146  87.9196 273.4145 0002861  99.4700 260.6757 13.20772204179989
ONEWEB-0535             
1 54147U 22138AL  26173.61392090  .00000110  00000+0  24203-3 0  9991
2 54147  87.9184 303.8777 0002159  93.9454 266.1926 13.19726003177555
ONEWEB-0536             
1 54148U 22138AM  26173.52253316  .00000090  00000+0  18862-3 0  9990
2 54148  87.9182 273.3937 0003035 102.0063 258.1411 13.20772319180002
ONEWEB-0527             
1 54642U 22166A   26173.47538370  .00000003  00000+0 -24784-4 0  9996
2 54642  87.9249 242.9451 0001988 100.0988 260.0371 13.21823738172233
ONEWEB-0528             
1 54643U 22166B   26173.47622113 -.00000054  00000+0 -16133-3 0  9991
2 54643  87.9249 242.9474 0001884 104.7216 255.4127 13.21824934172246
ONEWEB-0539             
1 54644U 22166C   26173.66546680 -.00000021  00000+0 -82199-4 0  9997
2 54644  87.9254 242.8818 0001874  92.4601 267.6748 13.21827996172261
ONEWEB-0540             
1 54645U 22166D   26173.44524022  .00000056  00000+0  10296-3 0  9994
2 54645  87.9254 242.9556 0002030  95.0231 265.1135 13.21827519172225
ONEWEB-0542             
1 54646U 22166E   26173.44846844  .00000020  00000+0  16003-4 0  9998
2 54646  87.9259 242.9237 0001926  90.5407 269.5948 13.21824809172235
ONEWEB-0545             
1 54647U 22166F   26173.48884714 -.00000158  00000+0 -41397-3 0  9998
2 54647  87.9252 242.9270 0001950  82.2310 277.9046 13.21827669172200
ONEWEB-0580             
1 54648U 22166G   26173.23650303 -.00000069  00000+0 -19914-3 0  9998
2 54648  87.9251 242.9770 0002148  87.4812 272.6568 13.21828239172215
ONEWEB-0582             
1 54649U 22166H   26173.42996898  .00000058  00000+0  10957-3 0  9996
2 54649  87.9250 242.9311 0002061  85.7710 274.3659 13.21827501172219
ONEWEB-0583             
1 54650U 22166J   26173.66883041  .00000004  00000+0 -21212-4 0  9998
2 54650  87.9248 242.9069 0002005  94.9033 265.2330 13.21824513172255
ONEWEB-0584             
1 54651U 22166K   26173.23483949  .00000025  00000+0  27915-4 0  9993
2 54651  87.9248 242.9786 0002100  95.0351 265.1023 13.21825396172183
ONEWEB-0585             
1 54652U 22166L   26173.48548224  .00000040  00000+0  65863-4 0  9990
2 54652  87.9252 242.9160 0002071 102.8549 257.2817 13.21826899172225
ONEWEB-0586             
1 54653U 22166M   26173.42323870  .00000024  00000+0  26819-4 0  9993
2 54653  87.9248 242.9538 0001955  93.7539 266.3819 13.21824642172213
ONEWEB-0587             
1 54654U 22166N   26173.43333257 -.00000014  00000+0 -64953-4 0  9997
2 54654  87.9260 242.9260 0002101 107.9895 252.1468 13.21823976172376
ONEWEB-0589             
1 54655U 22166P   26173.41987541 -.00000066  00000+0 -19080-3 0  9994
2 54655  87.9246 242.9401 0002214  75.3756 284.7623 13.21824752172239
ONEWEB-0590             
1 54656U 22166Q   26173.44496600  .00000035  00000+0  54164-4 0  9996
2 54656  87.9263 242.9261 0002514  96.9483 263.1937 13.21827701172227
ONEWEB-0591             
1 54657U 22166R   26173.22980080  .00000099  00000+0  20797-3 0  9997
2 54657  87.9249 242.9828 0002102  97.6404 262.4968 13.21826692172229
ONEWEB-0592             
1 54658U 22166S   26173.23314628  .00000048  00000+0  84609-4 0  9995
2 54658  87.9259 242.9608 0002054  98.3664 261.7703 13.21827883172108
ONEWEB-0593             
1 54659U 22166T   26173.48210835  .00000009  00000+0 -87858-5 0  9996
2 54659  87.9252 242.9224 0001900  95.6395 264.4955 13.21825455172243
ONEWEB-0594             
1 54660U 22166U   26173.42660094 -.00000056  00000+0 -16785-3 0  9990
2 54660  87.9249 242.9499 0001914 103.0974 257.0374 13.21828308172251
ONEWEB-0595             
1 54661U 22166V   26173.47874345 -.00000021  00000+0 -82120-4 0  9991
2 54661  87.9258 242.9204 0002140 104.6713 255.4658 13.21824329172230
ONEWEB-0596             
1 54662U 22166W   26173.45351849  .00000063  00000+0  12036-3 0  9991
2 54662  87.9252 242.9366 0002118 100.8875 259.2498 13.21827501172235
